COSMOS 2419 (714)       
1 28915U 05050A   16228.68076365  .00000028  00000-0  00000-0 0  9995
2 28915  65.3482  76.1562 0015536 357.3960  63.7120  2.13110990 82820
COSMOS 2425 (716)       
1 29670U 06062A   16228.65956448 -.00000026  00000-0  10000-3 0  9997
2 29670  65.6064 315.1561 0019658 344.7390 116.3990  2.13104959 75021
COSMOS 2426 (717)       
1 29671U 06062B   16229.16939148 -.00000023  00000-0  10000-3 0  9990
2 29671  65.6229 315.2226 0018777 166.3904 186.3450  2.13102941 75032
COSMOS 2424 (715)       
1 29672U 06062C   16229.08068456 -.00000023  00000-0  10000-3 0  9997
2 29672  65.6078 315.1529 0018238 165.2801 295.5880  2.13102376 75038
COSMOS 2433 (720)       
1 32275U 07052A   16228.85871744  .00000029  00000-0  10000-3 0  9991
2 32275  65.3652  75.9218 0000778 267.5827 178.4053  2.13104738 68549
COSMOS 2432 (719)       
1 32276U 07052B   16228.86239613  .00000029  00000-0  10000-3 0  9996
2 32276  65.3754  75.9888 0011217 346.2854  56.2212  2.13104178 68549
COSMOS 2434 (721)       
1 32393U 07065A   16229.04662106 -.00000023  00000-0  00000+0 0  9998
2 32393  65.2230 314.4384 0004792 129.6568 352.0831  2.13102915 67252
COSMOS 2436 (723)       
1 32395U 07065C   16229.29308748 -.00000021  00000-0  10000-3 0  9999
2 32395  65.2360 314.4726 0015205 353.0327  49.8124  2.13102940 67192
COSMOS 2443 (725)       
1 33379U 08046B   16228.61920624  .00000028  00000-0  10000-3 0  9996
2 33379  65.2930  75.3410 0016882 180.5406 346.0370  2.13100985 61404
COSMOS 2456 (730)       
1 36111U 09070A   16229.29429381  .00000042  00000-0  00000+0 0  9991
2 36111  64.1835 194.0064 0006301 298.0565 183.5126  2.13102987 51926
COSMOS 2457 (733)       
1 36112U 09070B   16228.59509883  .00000044  00000-0  00000+0 0  9992
2 36112  64.1649 193.9554 0006745 188.3336 246.8073  2.13101682 51915
COSMOS 2458 (734)       
1 36113U 09070C   16228.65650253  .00000044  00000-0  10000-3 0  9993
2 36113  64.1713 193.9586 0002503 294.1269 235.7266  2.13101953 51914
COSMOS 2459 (731)       
1 36400U 10007A   16229.17295308  .00000030  00000-0  10000-3 0  9993
2 36400  65.2736  75.0552 0028078 356.7303 195.1761  2.13102325 50273
COSMOS 2461 (735)       
1 36401U 10007B   16229.31860959  .00000030  00000-0  10000-3 0  9990
2 36401  65.2647  75.0310 0008205  73.1906 141.0452  2.13102355 50276
COSMOS 2460 (732)       
1 36402U 10007C   16229.02082353  .00000029  00000-0  10000-3 0  9991
2 36402  65.2552  75.0181 0001948  78.3046 309.2235  2.13101794 50270
COSMOS 2465 (737)       
1 37138U 10041B   16228.86758050 -.00000025  00000-0  00000+0 0  9993
2 37138  64.8234 314.5882 0036876 172.5679 214.8300  2.13103622 46344
COSMOS 2464 (736)       
1 37139U 10041C   16227.69677588 -.00000034  00000-0  00000-0 0  9991
2 37139  64.8315 314.6234 0020872  12.2847  21.6016  2.13102854 46325
COSMOS 2471 (701K)      
1 37372U 11009A   16229.43596541  .00000031  00000-0  00000+0 0  9993
2 37372  65.2531  74.9512 0006650 228.2601 250.5422  2.13102787 42559
COSMOS 2474 (742)       
1 37829U 11055A   16229.07282198  .00000044  00000-0  00000+0 0  9995
2 37829  64.5080 194.4513 0010528 254.2024 278.6118  2.13101962 37914
COSMOS 2476 (744)       
1 37867U 11064A   16228.51992846  .00000046  00000-0  00000-0 0  9996
2 37867  64.4883 194.5492 0019526 248.2753 266.2370  2.13102037 37256
COSMOS 2477 (745)       
1 37868U 11064B   16228.66346566  .00000046  00000-0  00000+0 0  9994
2 37868  64.4962 194.5854 0017532 249.6558 194.2474  2.13101924 37215
COSMOS 2475 (743)       
1 37869U 11064C   16229.13025988  .00000044  00000-0  00000+0 0  9998
2 37869  64.5036 194.5581 0022828 273.4205 124.7623  2.13102177 37231
COSMOS 2485 (747)       
1 39155U 13019A   16228.62818223  .00000046  00000-0  00000+0 0  9997
2 39155  64.6574 194.5095 0019745 243.3568  39.3168  2.13102088 25728
COSMOS 2492 (754)       
1 39620U 14012A   16228.63902079  .00000027  00000-0  10000-3 0  9996
2 39620  65.1456  75.0098 0014422 339.9671 344.4191  2.13103609 18672
COSMOS 2500 (755)       
1 40001U 14032A   16228.61852639  .00000027  00000-0  00000+0 0  9992
2 40001  65.0850  75.0309 0005141 188.8235 343.4912  2.13102972 16898
COSMOS 2501 (702K)      
1 40315U 14075A   16229.11398999 -.00000026  00000-0  00000+0 0  9997
2 40315  64.5955 316.0133 0018331 231.4451 121.9269  2.13101735 13302
COSMOS 2514 (751)       
1 41330U 16008A   16228.38837586  .00000025  00000-0  00000-0 0  9990
2 41330  64.8845  75.2593 0007945 205.8887 329.0478  2.13103533  4055
COSMOS 2516 (753)       
1 41554U 16032A   16228.79465931 -.00000027  00000-0  00000+0 0  9993
2 41554  64.7757 315.7135 0012630 218.6208 162.4881  2.13101531  1672
